QZS-1R                  
1 49336U 21096A   23257.88174375 -.00000232  00000+0  00000+0 0  9991
2 49336  35.3730  94.7536 0743679 269.5149  80.6618  1.00290050  6916
